CCSDS_OMM_VERS = 2.0
CREATION_DATE  = 
ORIGINATOR     = 

OBJECT_NAME    = STARLINK-35580
OBJECT_ID      = 2025-240K
CENTER_NAME    = EARTH
REF_FRAME      = TEME
TIME_SYSTEM    = UTC
MEAN_ELEMENT_THEORY = SGP/SGP4

EPOCH          = 2025-11-22T04:00:05.999040
MEAN_MOTION    = 15.43712743
ECCENTRICITY   = .0000925
INCLINATION    = 53.1589
RA_OF_ASC_NODE = 203.2060
ARG_OF_PERICENTER = 99.9196
MEAN_ANOMALY   = 222.4833

EPHEMERIS_TYPE = 0
CLASSIFICATION_TYPE = U
NORAD_CAT_ID   = 66155
ELEMENT_SET_NO = 999
REV_AT_EPOCH   = 559
BSTAR          = -.49937E-1
MEAN_MOTION_DOT = -.2036879E-1
MEAN_MOTION_DDOT = 0

CCSDS_OMM_VERS = 2.0
CREATION_DATE  = 
ORIGINATOR     = 

OBJECT_NAME    = STARLINK-35621
OBJECT_ID      = 2025-240L
CENTER_NAME    = EARTH
REF_FRAME      = TEME
TIME_SYSTEM    = UTC
MEAN_ELEMENT_THEORY = SGP/SGP4

EPOCH          = 2025-11-22T04:00:05.999040
MEAN_MOTION    = 15.39577943
ECCENTRICITY   = .000143
INCLINATION    = 53.1594
RA_OF_ASC_NODE = 203.3972
ARG_OF_PERICENTER = 64.6055
MEAN_ANOMALY   = 161.4462

EPHEMERIS_TYPE = 0
CLASSIFICATION_TYPE = U
NORAD_CAT_ID   = 66156
ELEMENT_SET_NO = 999
REV_AT_EPOCH   = 559
BSTAR          = .20408E-2
MEAN_MOTION_DOT = .82001E-3
MEAN_MOTION_DDOT = 0

CCSDS_OMM_VERS = 2.0
CREATION_DATE  = 
ORIGINATOR     = 

OBJECT_NAME    = STARLINK-35594
OBJECT_ID      = 2025-240M
CENTER_NAME    = EARTH
REF_FRAME      = TEME
TIME_SYSTEM    = UTC
MEAN_ELEMENT_THEORY = SGP/SGP4

EPOCH          = 2025-11-22T00:59:50.261280
MEAN_MOTION    = 15.49304106
ECCENTRICITY   = .0001233
INCLINATION    = 53.1586
RA_OF_ASC_NODE = 203.7700
ARG_OF_PERICENTER = 64.1516
MEAN_ANOMALY   = 295.9620

EPHEMERIS_TYPE = 0
CLASSIFICATION_TYPE = U
NORAD_CAT_ID   = 66157
ELEMENT_SET_NO = 999
REV_AT_EPOCH   = 549
BSTAR          = .10864E-2
MEAN_MOTION_DOT = .60433E-3
MEAN_MOTION_DDOT = 0

CCSDS_OMM_VERS = 2.0
CREATION_DATE  = 
ORIGINATOR     = 

OBJECT_NAME    = STARLINK-35587
OBJECT_ID      = 2025-240N
CENTER_NAME    = EARTH
REF_FRAME      = TEME
TIME_SYSTEM    = UTC
MEAN_ELEMENT_THEORY = SGP/SGP4

EPOCH          = 2025-11-21T22:41:03.995232
MEAN_MOTION    = 15.39511449
ECCENTRICITY   = .0001023
INCLINATION    = 53.1594
RA_OF_ASC_NODE = 204.5942
ARG_OF_PERICENTER = 77.6204
MEAN_ANOMALY   = 282.4915

EPHEMERIS_TYPE = 0
CLASSIFICATION_TYPE = U
NORAD_CAT_ID   = 66158
ELEMENT_SET_NO = 999
REV_AT_EPOCH   = 547
BSTAR          = .89594E-3
MEAN_MOTION_DOT = .35476E-3
MEAN_MOTION_DDOT = 0

CCSDS_OMM_VERS = 2.0
CREATION_DATE  = 
ORIGINATOR     = 

OBJECT_NAME    = STARLINK-35586
OBJECT_ID      = 2025-240P
CENTER_NAME    = EARTH
REF_FRAME      = TEME
TIME_SYSTEM    = UTC
MEAN_ELEMENT_THEORY = SGP/SGP4

EPOCH          = 2025-11-22T00:58:50.666880
MEAN_MOTION    = 15.49305279
ECCENTRICITY   = .0001061
INCLINATION    = 53.1586
RA_OF_ASC_NODE = 203.7653
ARG_OF_PERICENTER = 73.5241
MEAN_ANOMALY   = 286.5884

EPHEMERIS_TYPE = 0
CLASSIFICATION_TYPE = U
NORAD_CAT_ID   = 66159
ELEMENT_SET_NO = 999
REV_AT_EPOCH   = 549
BSTAR          = .11392E-2
MEAN_MOTION_DOT = .63419E-3
MEAN_MOTION_DDOT = 0

CCSDS_OMM_VERS = 2.0
CREATION_DATE  = 
ORIGINATOR     = 

OBJECT_NAME    = STARLINK-35636
OBJECT_ID      = 2025-240Q
CENTER_NAME    = EARTH
REF_FRAME      = TEME
TIME_SYSTEM    = UTC
MEAN_ELEMENT_THEORY = SGP/SGP4

EPOCH          = 2025-11-21T22:41:33.904320
MEAN_MOTION    = 15.39499366
ECCENTRICITY   = .0001284
INCLINATION    = 53.1591
RA_OF_ASC_NODE = 204.5940
ARG_OF_PERICENTER = 87.9743
MEAN_ANOMALY   = 272.1409

EPHEMERIS_TYPE = 0
CLASSIFICATION_TYPE = U
NORAD_CAT_ID   = 66160
ELEMENT_SET_NO = 999
REV_AT_EPOCH   = 547
BSTAR          = .88133E-3
MEAN_MOTION_DOT = .34874E-3
MEAN_MOTION_DDOT = 0

CCSDS_OMM_VERS = 2.0
CREATION_DATE  = 
ORIGINATOR     = 

OBJECT_NAME    = STARLINK-35635
OBJECT_ID      = 2025-240R
CENTER_NAME    = EARTH
REF_FRAME      = TEME
TIME_SYSTEM    = UTC
MEAN_ELEMENT_THEORY = SGP/SGP4

EPOCH          = 2025-11-21T22:48:13.629600
MEAN_MOTION    = 15.39586122
ECCENTRICITY   = .0001148
INCLINATION    = 53.1587
RA_OF_ASC_NODE = 204.6226
ARG_OF_PERICENTER = 70.2750
MEAN_ANOMALY   = 289.8378

EPHEMERIS_TYPE = 0
CLASSIFICATION_TYPE = U
NORAD_CAT_ID   = 66161
ELEMENT_SET_NO = 999
REV_AT_EPOCH   = 547
BSTAR          = .13452E-2
MEAN_MOTION_DOT = .53729E-3
MEAN_MOTION_DDOT = 0

CCSDS_OMM_VERS = 2.0
CREATION_DATE  = 
ORIGINATOR     = 

OBJECT_NAME    = STARLINK-35633
OBJECT_ID      = 2025-240S
CENTER_NAME    = EARTH
REF_FRAME      = TEME
TIME_SYSTEM    = UTC
MEAN_ELEMENT_THEORY = SGP/SGP4

EPOCH          = 2025-11-21T22:40:11.553888
MEAN_MOTION    = 15.49290031
ECCENTRICITY   = .0001363
INCLINATION    = 53.1593
RA_OF_ASC_NODE = 203.8697
ARG_OF_PERICENTER = 86.5887
MEAN_ANOMALY   = 273.5277

EPHEMERIS_TYPE = 0
CLASSIFICATION_TYPE = U
NORAD_CAT_ID   = 66162
ELEMENT_SET_NO = 999
REV_AT_EPOCH   = 548
BSTAR          = .11493E-2
MEAN_MOTION_DOT = .63954E-3
MEAN_MOTION_DDOT = 0

CCSDS_OMM_VERS = 2.0
CREATION_DATE  = 
ORIGINATOR     = 

OBJECT_NAME    = STARLINK-35607
OBJECT_ID      = 2025-240T
CENTER_NAME    = EARTH
REF_FRAME      = TEME
TIME_SYSTEM    = UTC
MEAN_ELEMENT_THEORY = SGP/SGP4

EPOCH          = 2025-11-21T22:39:41.737248
MEAN_MOTION    = 15.49296671
ECCENTRICITY   = .0001287
INCLINATION    = 53.1594
RA_OF_ASC_NODE = 203.8675
ARG_OF_PERICENTER = 109.4558
MEAN_ANOMALY   = 250.6590

EPHEMERIS_TYPE = 0
CLASSIFICATION_TYPE = U
NORAD_CAT_ID   = 66163
ELEMENT_SET_NO = 999
REV_AT_EPOCH   = 548
BSTAR          = .7134E-3
MEAN_MOTION_DOT = .39411E-3
MEAN_MOTION_DDOT = 0

CCSDS_OMM_VERS = 2.0
CREATION_DATE  = 
ORIGINATOR     = 

OBJECT_NAME    = STARLINK-35614
OBJECT_ID      = 2025-240U
CENTER_NAME    = EARTH
REF_FRAME      = TEME
TIME_SYSTEM    = UTC
MEAN_ELEMENT_THEORY = SGP/SGP4

EPOCH          = 2025-11-21T22:38:42.340704
MEAN_MOTION    = 15.49300644
ECCENTRICITY   = .0001011
INCLINATION    = 53.1591
RA_OF_ASC_NODE = 203.8613
ARG_OF_PERICENTER = 80.0063
MEAN_ANOMALY   = 280.1060

EPHEMERIS_TYPE = 0
CLASSIFICATION_TYPE = U
NORAD_CAT_ID   = 66164
ELEMENT_SET_NO = 999
REV_AT_EPOCH   = 548
BSTAR          = .68756E-3
MEAN_MOTION_DOT = .37966E-3
MEAN_MOTION_DDOT = 0

CCSDS_OMM_VERS = 2.0
CREATION_DATE  = 
ORIGINATOR     = 

OBJECT_NAME    = STARLINK-35575
OBJECT_ID      = 2025-240V
CENTER_NAME    = EARTH
REF_FRAME      = TEME
TIME_SYSTEM    = UTC
MEAN_ELEMENT_THEORY = SGP/SGP4

EPOCH          = 2025-11-21T22:39:12.160800
MEAN_MOTION    = 15.49303704
ECCENTRICITY   = .0001355
INCLINATION    = 53.1595
RA_OF_ASC_NODE = 203.8647
ARG_OF_PERICENTER = 74.5225
MEAN_ANOMALY   = 285.5933

EPHEMERIS_TYPE = 0
CLASSIFICATION_TYPE = U
NORAD_CAT_ID   = 66165
ELEMENT_SET_NO = 999
REV_AT_EPOCH   = 548
BSTAR          = .16053E-2
MEAN_MOTION_DOT = .89847E-3
MEAN_MOTION_DDOT = 0

CCSDS_OMM_VERS = 2.0
CREATION_DATE  = 
ORIGINATOR     = 

OBJECT_NAME    = STARLINK-35624
OBJECT_ID      = 2025-240W
CENTER_NAME    = EARTH
REF_FRAME      = TEME
TIME_SYSTEM    = UTC
MEAN_ELEMENT_THEORY = SGP/SGP4

EPOCH          = 2025-11-22T04:00:05.999040
MEAN_MOTION    = 15.49268849
ECCENTRICITY   = .0001024
INCLINATION    = 53.1588
RA_OF_ASC_NODE = 202.7881
ARG_OF_PERICENTER = 106.7359
MEAN_ANOMALY   = 62.7276

EPHEMERIS_TYPE = 0
CLASSIFICATION_TYPE = U
NORAD_CAT_ID   = 66166
ELEMENT_SET_NO = 999
REV_AT_EPOCH   = 559
BSTAR          = .17419E-2
MEAN_MOTION_DOT = .97507E-3
MEAN_MOTION_DDOT = 0

