STARLINK-35580          
1 66155U 25240K   25326.16673610 -.02036879  00000+0 -49937-1 0  9993
2 66155  53.1589 203.2060 0000925  99.9196 222.4833 15.43712743  5598
STARLINK-35621          
1 66156U 25240L   25326.16673610  .00082001  00000+0  20408-2 0  9991
2 66156  53.1594 203.3972 0001430  64.6055 161.4462 15.39577943  5599
STARLINK-35594          
1 66157U 25240M   25326.04155395  .00060433  00000+0  10864-2 0  9994
2 66157  53.1586 203.7700 0001233  64.1516 295.9620 15.49304106  5490
STARLINK-35587          
1 66158U 25240N   25325.94518513  .00035476  00000+0  89594-3 0  9994
2 66158  53.1594 204.5942 0001023  77.6204 282.4915 15.39511449  5472
STARLINK-35586          
1 66159U 25240P   25326.04086420  .00063419  00000+0  11392-2 0  9992
2 66159  53.1586 203.7653 0001061  73.5241 286.5884 15.49305279  5497
STARLINK-35636          
1 66160U 25240Q   25325.94553130  .00034874  00000+0  88133-3 0  9990
2 66160  53.1591 204.5940 0001284  87.9743 272.1409 15.39499366  5478
STARLINK-35635          
1 66161U 25240R   25325.95015775  .00053729  00000+0  13452-2 0  9991
2 66161  53.1587 204.6226 0001148  70.2750 289.8378 15.39586122  5471
STARLINK-35633          
1 66162U 25240S   25325.94457817  .00063954  00000+0  11493-2 0  9992
2 66162  53.1593 203.8697 0001363  86.5887 273.5277 15.49290031  5483
STARLINK-35607          
1 66163U 25240T   25325.94423307  .00039411  00000+0  71340-3 0  9999
2 66163  53.1594 203.8675 0001287 109.4558 250.6590 15.49296671  5486
STARLINK-35614          
1 66164U 25240U   25325.94354561  .00037966  00000+0  68756-3 0  9995
2 66164  53.1591 203.8613 0001011  80.0063 280.1060 15.49300644  5482
STARLINK-35575          
1 66165U 25240V   25325.94389075  .00089847  00000+0  16053-2 0  9991
2 66165  53.1595 203.8647 0001355  74.5225 285.5933 15.49303704  5481
STARLINK-35624          
1 66166U 25240W   25326.16673610  .00097507  00000+0  17419-2 0  9997
2 66166  53.1588 202.7881 0001024 106.7359  62.7276 15.49268849  5598
